GLOBALSTAR M068 [-]     
1 32266U 07048D   23294.85971087 -.00000057  00000+0  25981-3 0  9993
2 32266  51.9905 344.3613 0000564 221.3272 310.3000 12.62768599741204
GLOBALSTAR M079 [+]     
1 37188U 10054A   23294.85836028 -.00000095  00000+0  48207-4 0  9996
2 37188  52.0027 179.4616 0001039  72.0282  51.3841 12.62269207600132
GLOBALSTAR M074 [+]     
1 37189U 10054B   23294.87518743 -.00000083  00000+0  11372-3 0  9999
2 37189  52.0002 178.8261 0000846  78.9591   1.3507 12.62271208600743
GLOBALSTAR M076 [+]     
1 37190U 10054C   23294.90154292 -.00000088  00000+0  86200-4 0  9998
2 37190  52.0016 178.8625 0001371  90.6252 349.1634 12.62262496600465
GLOBALSTAR M077 [+]     
1 37191U 10054D   23294.89431137 -.00000098  00000+0  34826-4 0  9991
2 37191  52.0048 135.5672 0000892  93.3894  12.4659 12.62267826600832
GLOBALSTAR M075 [+]     
1 37192U 10054E   23294.82223090 -.00000072  00000+0  17844-3 0  9994
2 37192  51.9942 221.6974 0000848  60.3554 317.8832 12.62254754600059
GLOBALSTAR M073 [+]     
1 37193U 10054F   23294.82102064 -.00000095  00000+0  48143-4 0  9994
2 37193  52.0035 135.0577 0000942  87.4639 286.2933 12.62268933601518
GLOBALSTAR M083 [+]     
1 37739U 11033A   23294.67532164 -.00000092  00000+0  63721-4 0  9995
2 37739  51.9852  85.0539 0000638  83.5524 289.3057 12.62270550570517
GLOBALSTAR M088 [+]     
1 37740U 11033B   23294.92252899 -.00000077  00000+0  15061-3 0  9995
2 37740  51.9757 350.3064 0000473  66.0095 109.8607 12.62266505566089
GLOBALSTAR M091 [+]     
1 37741U 11033C   23294.77639068 -.00000075  00000+0  15840-3 0  9999
2 37741  52.0003 313.2267 0000566  43.5854 127.1529 12.62267417566859
GLOBALSTAR M085 [+]     
1 37742U 11033D   23294.97081410 -.00000076  00000+0  15672-3 0  9998
2 37742  51.9859 264.2058 0000671  42.2612 353.0687 12.62264023567390
GLOBALSTAR M081 [+]     
1 37743U 11033E   23294.91420850 -.00000077  00000+0  14678-3 0  9994
2 37743  51.9950 266.7924 0000825  52.3023 325.5874 12.62265771567530
GLOBALSTAR M089 [+]     
1 37744U 11033F   23294.96722683 -.00000087  00000+0  96072-4 0  9999
2 37744  51.9926 220.9724 0000855  83.1394 355.5858 12.62268498568388
GLOBALSTAR M084 [+]     
1 38040U 11080A   23294.92151648 -.00000098  00000+0  34867-4 0  9990
2 38040  51.9996  88.0776 0001002 112.6858  57.3970 12.62267048546358
GLOBALSTAR M080 [+]     
1 38041U 11080B   23294.89384484 -.00000100  00000+0  19747-4 0  9997
2 38041  52.0047  89.5559 0001225 109.5473  54.9581 12.62265682546474
GLOBALSTAR M082 [+]     
1 38042U 11080C   23294.74850194 -.00000094  00000+0  55017-4 0  9990
2 38042  52.0094  45.3796 0000218  38.4892 126.2541 12.62271659547163
GLOBALSTAR M092 [+]     
1 38043U 11080D   23294.95578069 -.00000081  00000+0  12968-3 0  9995
2 38043  52.0059 135.0944 0000935 110.0401  37.5014 12.62273516545640
GLOBALSTAR M090 [+]     
1 38044U 11080E   23294.77478431 -.00000091  00000+0  71826-4 0  9998
2 38044  51.9906  39.8861 0000519  82.8014  82.3286 12.62278283547280
GLOBALSTAR M086 [+]     
1 38045U 11080F   23294.71831508 -.00000102  00000+0  88092-5 0  9998
2 38045  51.9919  40.5633 0001474  77.7413  69.8456 12.62263328547225
GLOBALSTAR M097 [+]     
1 39072U 13005A   23294.79165483 -.00000063  00000+0  22676-3 0  9998
2 39072  52.0054 314.2778 0000568  44.6874 315.4038 12.62271671494560
GLOBALSTAR M093 [+]     
1 39073U 13005B   23294.76512685 -.00000075  00000+0  16208-3 0  9993
2 39073  51.9814 308.6286 0000779  37.2492 322.8428 12.62267770494438
GLOBALSTAR M094 [+]     
1 39074U 13005C   23294.84436472 -.00000081  00000+0  12822-3 0  9997
2 39074  51.9953 222.1633 0000890  58.3493 301.7460 12.62268717496052
GLOBALSTAR M096 [+]     
1 39075U 13005D   23294.93669301 -.00000077  00000+0  15077-3 0  9997
2 39075  52.0067 269.9248 0000747  44.0052 316.0874 12.62265067494989
GLOBALSTAR M078 [+]     
1 39076U 13005E   23294.91009829 -.00000051  00000+0  29341-3 0  9990
2 39076  51.9898 355.3366 0000523 283.1164  76.9644 12.62260814493603
GLOBALSTAR M095 [+]     
1 39077U 13005F   23294.85758698 -.00000079  00000+0  13758-3 0  9994
2 39077  51.9825 352.9955 0000420 357.2728   2.8137 12.62269734493454
GLOBALSTAR M087 [+]     
1 52888U 22064A   23294.91939353 -.00000077  00000+0  97611-4 0  9999
2 52888  51.9765 322.6856 0009866 116.1933 243.9983 13.37555692 65501
